CCSDS_OMM_VERS = 2.0
CREATION_DATE  = 
ORIGINATOR     = 

OBJECT_NAME    = LIJIAN-2 R/B
OBJECT_ID      = 2026-066B
CENTER_NAME    = EARTH
REF_FRAME      = TEME
TIME_SYSTEM    = UTC
MEAN_ELEMENT_THEORY = SGP/SGP4

EPOCH          = 2026-03-31T18:24:33.055200
MEAN_MOTION    = 15.04815352
ECCENTRICITY   = .06052317
INCLINATION    = 84.7161
RA_OF_ASC_NODE = 277.0200
ARG_OF_PERICENTER = 206.6432
MEAN_ANOMALY   = 150.2503

EPHEMERIS_TYPE = 0
CLASSIFICATION_TYPE = U
NORAD_CAT_ID   = 68413
ELEMENT_SET_NO = 999
REV_AT_EPOCH   = 20
BSTAR          = .21174642E-3
MEAN_MOTION_DOT = .2524605E-1
MEAN_MOTION_DDOT = -.1158743E-5

CCSDS_OMM_VERS = 2.0
CREATION_DATE  = 
ORIGINATOR     = 

OBJECT_NAME    = SL-4 R/B
OBJECT_ID      = 2026-061S
CENTER_NAME    = EARTH
REF_FRAME      = TEME
TIME_SYSTEM    = UTC
MEAN_ELEMENT_THEORY = SGP/SGP4

EPOCH          = 2026-04-01T11:16:52.873824
MEAN_MOTION    = 15.90800342
ECCENTRICITY   = .0026417
INCLINATION    = 82.3054
RA_OF_ASC_NODE = 98.7857
ARG_OF_PERICENTER = 37.7313
MEAN_ANOMALY   = 322.5805

EPHEMERIS_TYPE = 0
CLASSIFICATION_TYPE = U
NORAD_CAT_ID   = 68537
ELEMENT_SET_NO = 999
REV_AT_EPOCH   = 139
BSTAR          = .57403557E-3
MEAN_MOTION_DOT = .183726E-2
MEAN_MOTION_DDOT = .10942081E-4

CCSDS_OMM_VERS = 2.0
CREATION_DATE  = 
ORIGINATOR     = 

OBJECT_NAME    = ARTEMIS 2
OBJECT_ID      = 2026-069A
CENTER_NAME    = EARTH
REF_FRAME      = TEME
TIME_SYSTEM    = UTC
MEAN_ELEMENT_THEORY = SGP/SGP4

EPOCH          = 2026-04-02T23:30:16.620192
MEAN_MOTION    = 1.02719738
ECCENTRICITY   = .8432928
INCLINATION    = 28.3222
RA_OF_ASC_NODE = 359.2721
ARG_OF_PERICENTER = 78.2202
MEAN_ANOMALY   = 354.4906

EPHEMERIS_TYPE = 0
CLASSIFICATION_TYPE = U
NORAD_CAT_ID   = 68538
ELEMENT_SET_NO = 999
REV_AT_EPOCH   = 1
BSTAR          = .13951E-2
MEAN_MOTION_DOT = .198659E-2
MEAN_MOTION_DDOT = .15765E-5

